COSMOS 2425 (716)       
1 29670U 06062A   21191.34170336  .00000059  00000-0  00000-0 0  9993
2 29670  64.8359 254.6763 0023851 341.1479  90.2319  2.13117148113166
COSMOS 2433 (720)       
1 32275U 07052A   21194.42369608 -.00000035  00000-0  00000+0 0  9996
2 32275  66.0613  15.9223 0001071 181.8107 266.4480  2.13104175106742
COSMOS 2432 (719)       
1 32276U 07052B   21191.61378487 -.00000040  00000-0  00000-0 0  9997
2 32276  66.0818  16.1103 0008853 342.3137  59.5153  2.13103612106688
COSMOS 2434 (721)       
1 32393U 07065A   21194.45118888  .00000050  00000-0  00000-0 0  9993
2 32393  64.4538 253.0176 0001947 122.9607 234.8633  2.13103141105443
COSMOS 2436 (723)       
1 32395U 07065C   21194.42766816  .00000050  00000-0  00000-0 0  9992
2 32395  64.4615 253.0720 0013833 354.2473 121.6262  2.13103109105382
COSMOS 2456 (730)       
1 36111U 09070A   21194.46944141  .00000038  00000-0  00000-0 0  9999
2 36111  64.2809 132.6903 0005516 309.2493 232.7790  2.13099379 90118
COSMOS 2457 (733)       
1 36112U 09070B   21194.28847968  .00000037  00000-0  00000-0 0  9998
2 36112  64.2636 132.5823 0004262 185.5653 342.2245  2.13101550 90114
COSMOS 2459 (731)       
1 36400U 10007A   21194.54844012 -.00000035  00000-0  00000-0 0  9995
2 36400  65.9632  14.8394 0025453 352.2576  49.6141  2.13108677 88460
COSMOS 2461 (735)       
1 36401U 10007B   21194.54844053 -.00000035  00000-0  00000-0 0  9991
2 36401  65.9553  14.8027 0020324  14.0027  27.8715  2.13103732 88475
COSMOS 2460 (732)       
1 36402U 10007C   21193.76531718 -.00000037  00000-0  00000-0 0  9998
2 36402  65.9432  14.7858 0002572  88.5352  17.6008  2.13106533 88457
COSMOS 2464 (736)       
1 37139U 10041C   21194.36405354  .00000051  00000-0  00000-0 0  9992
2 37139  64.0530 252.2647 0026597   7.8046 143.8965  2.13100838 84526
COSMOS 2471 (701K)      
1 37372U 11009A   21194.44694256 -.00000036  00000-0  00000-0 0  9990
2 37372  65.9378  14.6908 0014537 225.4145 189.0169  2.13052311 80744
COSMOS 2476 (744)       
1 37867U 11064A   21194.54221536  .00000040  00000-0  00000-0 0  9992
2 37867  64.5758 133.9108 0021641 241.0125 259.4215  2.13101870 75465
COSMOS 2477 (745)       
1 37868U 11064B   21194.37852017  .00000039  00000-0  00000-0 0  9996
2 37868  64.5837 133.9778 0019000 241.9952 311.1659  2.13101895 75410
COSMOS 2475 (743)       
1 37869U 11064C   21194.55884094  .00000040  00000-0  00000-0 0  9999
2 37869  64.5909 133.9765 0023530 260.2747  28.9336  2.13102086 75425
COSMOS 2485 (747)       
1 39155U 13019A   21194.40947688  .00000040  00000-0  00000-0 0  9994
2 39155  64.7412 134.2702 0022118 236.8102 206.2571  2.13102014 63932
COSMOS 2492 (754)       
1 39620U 14012A   21194.31476902 -.00000036  00000-0  00000-0 0  9997
2 39620  65.8334  14.4960 0011737 334.0231  71.1777  2.13103259 56883
COSMOS 2500 (755)       
1 40001U 14032A   21193.96158289 -.00000037  00000-0  00000-0 0  9990
2 40001  65.7711  14.3953 0005739 180.8552 172.9751  2.13102445 55084
COSMOS 2501 (702K)      
1 40315U 14075A   21194.38635111  .00000049  00000-0  00000-0 0  9998
2 40315  63.7635 253.0635 0018423 211.0634 275.0952  2.13101544 51506
COSMOS 2514 (751)       
1 41330U 16008A   21194.40563660 -.00000037  00000-0  00000-0 0  9994
2 41330  65.5738  14.1549 0008813 199.4673 318.2025  2.13102864 42262
COSMOS 2516 (753)       
1 41554U 16032A   21194.35339706  .00000050  00000-0  00000-0 0  9999
2 41554  63.9894 253.2432 0015012 218.1081 155.2634  2.13107156 39870
COSMOS 2522 (752)       
1 42939U 17055A   21194.51287492  .00000049  00000-0  00000-0 0  9993
2 42939  64.2236 253.5343 0008872 242.6162 115.6609  2.13101937 29629
COSMOS 2527 (756)       
1 43508U 18053A   21190.17402917  .00000005  00000-0  00000-0 0  9996
2 43508  64.9031 134.3434 0008676 240.6266  61.1360  2.13102672 23826
COSMOS 2529 (757)       
1 43687U 18086A   21194.61740259  .00000048  00000-0  00000-0 0  9994
2 43687  64.4359 253.7550 0010938 264.0987 129.9383  2.13102147 20946
COSMOS 2534 (758)       
1 44299U 19030A   21194.53783475  .00000049  00000-0  00000-0 0  9993
2 44299  64.5082 253.6105 0013309 283.6476 184.1737  2.13102103 16583
COSMOS 2544 (759)       
1 44850U 19088A   21194.60206928  .00000041  00000-0  00000-0 0  9992
2 44850  64.8904 134.0524 0013318 265.8423 236.7032  2.13102262 12352
COSMOS 2545 (760)       
1 45358U 20018A   21194.56738992 -.00000038  00000-0  00000-0 0  9994
2 45358  64.9080  15.0375 0006669 239.9113  86.0122  2.13102865 10301
